PROXIMA II              
1 43696U 18088G   22101.76293194  .00009153  00000+0  36078-3 0  9994
2 43696  85.0348 357.4447 0017910   9.1372 351.0194 15.25274496189794
FACSAT-1                
1 43721U 18096C   22102.39753839  .00020914  00000+0  64590-3 0  9997
2 43721  97.3541 182.4106 0013419 288.3777 134.7683 15.33480695187844
CENTAURI-2              
1 43722U 18096D   22101.78991505  .00024114  00000+0  69017-3 0  9999
2 43722  97.3582 183.4483 0013186 287.2539  72.7261 15.35857455187830
INNOSAT-2               
1 43738U 18096V   22102.39502463  .00047899  00000+0  10895-2 0  9999
2 43738  97.3665 190.1797 0015896 275.9235 146.3454 15.42706670188304
SIRION PATHFINDER-2     
1 43759U 18099B   22102.49989462  .00001801  00000+0  16493-3 0  9998
2 43759  97.6258 170.9882 0015263 120.0131 240.2607 14.96075526183184
CORVUS BC4              
1 43767U 18099K   22102.15991582  .00001683  00000+0  15695-3 0  9997
2 43767  97.6220 169.2599 0012771 125.5622 234.6791 14.95474909183069
MOVE-II                 
1 43780U 18099Y   22102.46188402  .00005492  00000+0  48010-3 0  9994
2 43780  97.6291 171.4993 0014639 130.3346 229.9157 14.97083937183182
SPACEBEE-7              
1 43816U 18099BL  22102.44687988  .00004187  00000+0  36716-3 0  9995
2 43816  97.6306 172.2029 0014114 115.7798 244.4882 14.97097071182779
SPACEBEE-5              
1 43817U 18099BM  22102.17965993  .00010213  00000+0  82924-3 0  9990
2 43817  97.6427 174.3941 0011959 117.3583 242.8859 14.99761274182832
SPACEBEE-6              
1 43818U 18099BN  22102.17598128  .00005951  00000+0  50940-3 0  9999
2 43818  97.6348 172.6794 0013748 115.2423 245.0226 14.97876003182917
SHIELDS 1               
1 43850U 18104B   22102.48576160  .00004418  00000+0  18583-3 0  9992
2 43850  85.0246  95.9733 0015952 140.7324 219.5079 15.22979864184465
STF-1                   
1 43852U 18104D   22101.71012947  .00011105  00000+0  44036-3 0  9990
2 43852  85.0278  96.9621 0014709 153.6232 206.5763 15.25143031184366
ZACUBE-2                
1 43907U 18111AH  22102.47201565  .00005680  00000+0  21839-3 0  9996
2 43907  97.1990 351.1322 0019028 318.0511 166.8409 15.26624915183227
LUME 1                  
1 43908U 18111AJ  22102.17995600  .00011457  00000+0  40791-3 0  9991
2 43908  97.2006 352.1038 0017576 314.4712  45.5091 15.28956692183267
AOBA VELOX-IV           
1 43940U 19003J   22101.81607199  .00024269  00000+0  74955-3 0  9995
2 43940  97.1377 139.7946 0019719  30.7357 329.5036 15.33339855179906
MOVE-IIB                
1 44398U 19038N   22101.90247456  .00016904  00000+0  85551-3 0  9998
2 44398  97.6228  70.7534 0022712   4.6012 355.5426 15.16860054152944
SONATE                  
1 44400U 19038Q   22102.11380520  .00007056  00000+0  39056-3 0  9993
2 44400  97.6305  70.3811 0024184   6.2072 353.9455 15.13910619152895
LUCKY-7                 
1 44406U 19038W   22102.41302738  .00007839  00000+0  42454-3 0  9992
2 44406  97.6320  71.1124 0023178   4.0653 356.0762 15.14667729152962
BEESAT 9                
1 44412U 19038AC  22101.86463355  .00009689  00000+0  51052-3 0  9999
2 44412  97.6293  70.7497 0021095  11.0323 349.1367 15.15613675152601
JAISAT-1                
1 44419U 19038F   22101.87126218  .00009709  00000+0  50499-3 0  9998
2 44419  97.6299  71.5417 0019956   8.7070 351.4505 15.16094038152966
DUCHIFAT-3              
1 44854U 19089C   22102.37590841  .00004195  00000+0  33229-3 0  9996
2 44854  36.9651 131.9244 0007221  38.0952 322.0295 15.00533425128002
EYESAT-NANO             
1 44877U 19092E   22102.03403971  .00010017  00000+0  45546-3 0  9990
2 44877  97.4646 286.9417 0011459 224.3277 135.7042 15.20878402128260
ORBITAL FACTORY 2 (OF-2)
1 45113U 19071C   22102.14357891  .00026308  00000+0  61567-3 0  9993
2 45113  51.6404  24.7953 0008284 293.7878  66.2238 15.41912597123133
M2 PATHFINDER           
1 45727U 20037E   22102.49064445  .00001652  00000+0  16914-3 0  9997
2 45727  97.7302 279.1802 0011595 253.9366 106.0601 14.91801545 96994
NETSAT-4                
1 46504U 20068U   22101.81016369  .00003549  00000+0  26824-3 0  9990
2 46504  97.7184  41.7740 0011393 179.3031 180.8209 15.02972995 84033
NETSAT-3                
1 46505U 20068V   22101.82373359  .00003977  00000+0  30024-3 0  9999
2 46505  97.7172  41.7177 0010969 189.4424 170.6596 15.02945770 84049
NETSAT-1                
1 46506U 20068W   22101.83798535  .00004650  00000+0  35076-3 0  9999
2 46506  97.7147  41.6691 0009216 203.6901 156.3900 15.02902304 84040
NETSAT-2                
1 46507U 20068X   22101.77960113  .00004898  00000+0  36968-3 0  9991
2 46507  97.7139  41.6061 0008195 212.9631 147.1084 15.02862357 83987
SPOC                    
1 46921U 98067RR  22101.88141990  .00110263  00000+0  75276-3 0  9990
2 46921  51.6340 274.8278 0003340 254.5946 105.4684 15.73978041 81446
BOBCAT-1                
1 46922U 98067RS  22098.90122068  .11905367  12464-4  72310-3 0  9991
2 46922  51.6240 272.7697 0008754 281.6685  78.3359 16.41269594 81172
NEUTRON-1               
1 46923U 98067RT  22101.22220746  .00130544  00000+0  89957-3 0  9992
2 46923  51.6346 278.6875 0003556 249.6904 110.3713 15.73683711 81363
DESCENT                 
1 46927U 98067RX  22102.02371574  .00119956  00000+0  78593-3 0  9999
2 46927  51.6335 274.2820 0004444 253.9841 106.0669 15.74887572 81401
SAI-1 NANOCONNECT-2     
1 47701U 21015C   22089.17476740 -.00000073  00000+0  00000+0 0  9994
2 47701  97.4113 166.5771 0015583   2.4776 357.8237 15.25181835 60120
WARP-01                 
1 47924U 98067SA  22101.89288855  .00380645  00000+0  13535-2 0  9999
2 47924  51.6275 278.5611 0007624 265.5638  94.4496 15.87362855 61393
RSP-01                  
1 47925U 98067SB  22101.91703618  .00135714  00000+0  93943-3 0  9999
2 47925  51.6355 284.0823 0003885 259.5565 100.4996 15.73558454 61308
TAUSAT-1                
1 47926U 98067SC  22100.98578780  .00306404  00000+0  12073-2 0  9996
2 47926  51.6267 282.2802 0007004 269.9858  90.0343 15.85442601 61236
TSURU                   
1 47927U 98067SD  22101.96443727  .00098697  00000+0  79779-3 0  9997
2 47927  51.6355 285.8950 0002752 253.2343 106.8352 15.70031140 61285
STARS-EC                
1 47928U 98067SE  22102.54410155  .01265439  93321-3  17877-2 0  9995
2 47928  51.6253 272.3824 0012111 287.9031  72.0660 16.05092613 61492
MAYA-2                  
1 47929U 98067SF  22102.02620372  .00097526  00000+0  79194-3 0  9991
2 47929  51.6350 285.5568 0002655 255.8684 104.2018 15.69926346 61259
HIROGARI (OPUSAT-II)    
1 47930U 98067SG  22101.93332534  .01658280  19886-2  18645-2 0  9991
2 47930  51.6209 273.5339 0012471 290.1866  69.7806 16.08964045 61441
GUARANISAT-1            
1 47931U 98067SH  22101.82434502  .00098499  00000+0  79485-3 0  9992
2 47931  51.6365 286.4761 0002699 254.8992 105.1707 15.70072730 61269
SMOG-1                  
1 47964U 21022AJ  22101.68889867  .00008390  00000+0  53258-3 0  9998
2 47964  97.5358   3.4882 0019205  10.8002 349.3635 15.08976344 56812
MMSATS-1                
1 47976U 98067SJ  22101.91468446  .00026334  00000+0  38048-3 0  9994
2 47976  51.6436 298.2933 0002861 144.0095 216.1090 15.55750251 59892
BCCSAT-1                
1 48041U 21022AK  22101.70571934  .00007069  00000+0  45908-3 0  9996
2 48041  97.5373   3.2026 0015713  10.7700 349.3862 15.08247623 56776
RAMSAT                  
1 48850U 98067SL  22102.16381615  .00055311  00000+0  63583-3 0  9995
2 48850  51.6388 293.9671 0004508 195.3340 164.7518 15.61460883 46944
BD-28                   
1 48867U 98067SN  22101.81232271  .00067356  00000+0  72636-3 0  9998
2 48867  51.6360 294.5999 0004580 221.0247 139.0404 15.63024545 45654
MIR-SAT 1               
1 48868U 98067SP  22102.20343105  .00997391  49121-3  19611-2 0  9997
2 48868  51.6232 280.5993 0012059 280.1555  79.8094 15.99404247 45904
1998-067SR              
1 49272U 98067SR  22101.83040274  .00055735  00000+0  66957-3 0  9998
2 49272  51.6383 299.2202 0001768  96.9747 263.1447 15.60317375 29233
1998-067SS              
1 49273U 98067SS  22102.03762659  .00076852  00000+0  81258-3 0  9994
2 49273  51.6375 296.8549 0000762 146.3731 213.7312 15.63483129 29289
1998-067ST              
1 49274U 98067ST  22102.23887468  .00090262  00000+0  95757-3 0  9993
2 49274  51.6370 295.9476 0000555 145.6320 214.4711 15.63329043 29319
CUAVA-1                 
1 49275U 98067SU  22102.53039911  .00070543  00000+0  78994-3 0  9993
2 49275  51.6411 294.7904 0001334 115.3310 290.9506 15.62046533 29307
